STARLINK-34555          
1 64665U 25139B   25304.76689756  .00036147  00000+0  12275-2 0  9994
2 64665  53.1614   6.0057 0001223 128.9643 231.1467 15.30178123 20443
STARLINK-34390          
1 64666U 25139C   25304.47291844  .00025896  00000+0  88445-3 0  9992
2 64666  53.1582   7.0173 0000998 110.4391 249.6717 15.30161555 20568
STARLINK-34382          
1 64667U 25139D   25304.58677931  .00045990  00000+0  15574-2 0  9999
2 64667  53.1597   7.0160 0001288  80.9667 279.1479 15.30155368 20514
STARLINK-34395          
1 64668U 25139E   25304.44664909  .00045986  00000+0  15572-2 0  9999
2 64668  53.1611   7.5615 0001392  85.9556 274.1604 15.30158084 20490
STARLINK-34394          
1 64669U 25139F   25304.76373156  .00038786  00000+0  13157-2 0  9993
2 64669  53.1601   5.9879 0001007  82.1644 277.9471 15.30180165 20548
STARLINK-34287          
1 64670U 25139G   25304.56145404  .00030719  00000+0  10464-2 0  9992
2 64670  53.1601   6.8575 0001027  69.2066 290.9045 15.30155271 20518
STARLINK-34365          
1 64671U 25139H   25304.45297861  .00021952  00000+0  75199-3 0  9992
2 64671  53.1601   7.6007 0001168 103.2358 256.8773 15.30161703 20557
STARLINK-34442          
1 64672U 25139J   25304.74367859  .00047422  00000+0  16036-2 0  9994
2 64672  53.1579   5.8618 0001191  97.4346 262.6790 15.30187939 20549
STARLINK-34288          
1 64673U 25139K   25304.75001294  .00044530  00000+0  15075-2 0  9993
2 64673  53.1593   5.9006 0001324  87.2471 272.8682 15.30180495 20545
STARLINK-34539          
1 64674U 25139L   25304.60988146  .00048764  00000+0  16495-2 0  9998
2 64674  53.1577   6.4485 0000987  99.1017 261.0096 15.30166263 20420
STARLINK-34590          
1 64675U 25139M   25304.59414779  .00031544  00000+0  10711-2 0  9996
2 64675  53.1589   7.0579 0001575 109.8426 250.2745 15.30245792 20518
STARLINK-34573          
1 64676U 25139N   25304.60038532  .00026583  00000+0  90748-3 0  9994
2 64676  53.1569   6.3875 0001153  82.0759 278.0373 15.30162920 20528
STARLINK-34605          
1 64677U 25139P   25304.54727528  .00027926  00000+0  70682-3 0  9995
2 64677  53.1592   2.5153 0000935  91.1321 268.9791 15.39565665 20574
STARLINK-34525          
1 64678U 25139Q   25304.58888975  .00046528  00000+0  15749-2 0  9995
2 64678  53.1592   7.0238 0001070  71.4931 288.6186 15.30166583 20516
STARLINK-34489          
1 64679U 25139R   25304.71318854  .00044195  00000+0  14961-2 0  9998
2 64679  53.1602   6.3766 0001290  94.6162 265.4986 15.30184940 20534
STARLINK-34502          
1 64680U 25139S   25304.60564102  .00049269  00000+0  16603-2 0  9999
2 64680  53.1578   6.4188 0001569  78.1375 281.9802 15.30284535 20529
STARLINK-34553          
1 64681U 25139T   25304.46869485  .00025699  00000+0  87773-3 0  9994
2 64681  53.1576   6.9851 0001138  86.9487 273.1644 15.30166371 20505
