[{"OBJECT_NAME":"STARLINK-34555","OBJECT_ID":"2025-139B","EPOCH":"2025-10-31T18:24:19.949184","MEAN_MOTION":15.30178123,"ECCENTRICITY":0.0001223,"INCLINATION":53.1614,"RA_OF_ASC_NODE":6.0057,"ARG_OF_PERICENTER":128.9643,"MEAN_ANOMALY":231.1467,"EPHEMERIS_TYPE":0,"CLASSIFICATION_TYPE":"U","NORAD_CAT_ID":64665,"ELEMENT_SET_NO":999,"REV_AT_EPOCH":2044,"BSTAR":0.0012275,"MEAN_MOTION_DOT":0.00036147,"MEAN_MOTION_DDOT":0},{"OBJECT_NAME":"STARLINK-34390","OBJECT_ID":"2025-139C","EPOCH":"2025-10-31T11:21:00.153216","MEAN_MOTION":15.30161555,"ECCENTRICITY":9.98e-5,"INCLINATION":53.1582,"RA_OF_ASC_NODE":7.0173,"ARG_OF_PERICENTER":110.4391,"MEAN_ANOMALY":249.6717,"EPHEMERIS_TYPE":0,"CLASSIFICATION_TYPE":"U","NORAD_CAT_ID":64666,"ELEMENT_SET_NO":999,"REV_AT_EPOCH":2056,"BSTAR":0.00088445,"MEAN_MOTION_DOT":0.00025896,"MEAN_MOTION_DDOT":0},{"OBJECT_NAME":"STARLINK-34382","OBJECT_ID":"2025-139D","EPOCH":"2025-10-31T14:04:57.732384","MEAN_MOTION":15.30155368,"ECCENTRICITY":0.0001288,"INCLINATION":53.1597,"RA_OF_ASC_NODE":7.016,"ARG_OF_PERICENTER":80.9667,"MEAN_ANOMALY":279.1479,"EPHEMERIS_TYPE":0,"CLASSIFICATION_TYPE":"U","NORAD_CAT_ID":64667,"ELEMENT_SET_NO":999,"REV_AT_EPOCH":2051,"BSTAR":0.0015574,"MEAN_MOTION_DOT":0.0004599,"MEAN_MOTION_DDOT":0},{"OBJECT_NAME":"STARLINK-34395","OBJECT_ID":"2025-139E","EPOCH":"2025-10-31T10:43:10.481376","MEAN_MOTION":15.30158084,"ECCENTRICITY":0.0001392,"INCLINATION":53.1611,"RA_OF_ASC_NODE":7.5615,"ARG_OF_PERICENTER":85.9556,"MEAN_ANOMALY":274.1604,"EPHEMERIS_TYPE":0,"CLASSIFICATION_TYPE":"U","NORAD_CAT_ID":64668,"ELEMENT_SET_NO":999,"REV_AT_EPOCH":2049,"BSTAR":0.0015572,"MEAN_MOTION_DOT":0.00045986,"MEAN_MOTION_DDOT":0},{"OBJECT_NAME":"STARLINK-34394","OBJECT_ID":"2025-139F","EPOCH":"2025-10-31T18:19:46.406784","MEAN_MOTION":15.30180165,"ECCENTRICITY":0.0001007,"INCLINATION":53.1601,"RA_OF_ASC_NODE":5.9879,"ARG_OF_PERICENTER":82.1644,"MEAN_ANOMALY":277.9471,"EPHEMERIS_TYPE":0,"CLASSIFICATION_TYPE":"U","NORAD_CAT_ID":64669,"ELEMENT_SET_NO":999,"REV_AT_EPOCH":2054,"BSTAR":0.0013157,"MEAN_MOTION_DOT":0.00038786,"MEAN_MOTION_DDOT":0},{"OBJECT_NAME":"STARLINK-34287","OBJECT_ID":"2025-139G","EPOCH":"2025-10-31T13:28:29.629056","MEAN_MOTION":15.30155271,"ECCENTRICITY":0.0001027,"INCLINATION":53.1601,"RA_OF_ASC_NODE":6.8575,"ARG_OF_PERICENTER":69.2066,"MEAN_ANOMALY":290.9045,"EPHEMERIS_TYPE":0,"CLASSIFICATION_TYPE":"U","NORAD_CAT_ID":64670,"ELEMENT_SET_NO":999,"REV_AT_EPOCH":2051,"BSTAR":0.0010464,"MEAN_MOTION_DOT":0.00030719,"MEAN_MOTION_DDOT":0},{"OBJECT_NAME":"STARLINK-34365","OBJECT_ID":"2025-139H","EPOCH":"2025-10-31T10:52:17.351904","MEAN_MOTION":15.30161703,"ECCENTRICITY":0.0001168,"INCLINATION":53.1601,"RA_OF_ASC_NODE":7.6007,"ARG_OF_PERICENTER":103.2358,"MEAN_ANOMALY":256.8773,"EPHEMERIS_TYPE":0,"CLASSIFICATION_TYPE":"U","NORAD_CAT_ID":64671,"ELEMENT_SET_NO":999,"REV_AT_EPOCH":2055,"BSTAR":0.00075199,"MEAN_MOTION_DOT":0.00021952,"MEAN_MOTION_DDOT":0},{"OBJECT_NAME":"STARLINK-34442","OBJECT_ID":"2025-139J","EPOCH":"2025-10-31T17:50:53.830176","MEAN_MOTION":15.30187939,"ECCENTRICITY":0.0001191,"INCLINATION":53.1579,"RA_OF_ASC_NODE":5.8618,"ARG_OF_PERICENTER":97.4346,"MEAN_ANOMALY":262.679,"EPHEMERIS_TYPE":0,"CLASSIFICATION_TYPE":"U","NORAD_CAT_ID":64672,"ELEMENT_SET_NO":999,"REV_AT_EPOCH":2054,"BSTAR":0.0016036,"MEAN_MOTION_DOT":0.00047422,"MEAN_MOTION_DDOT":0},{"OBJECT_NAME":"STARLINK-34288","OBJECT_ID":"2025-139K","EPOCH":"2025-10-31T18:00:01.118016","MEAN_MOTION":15.30180495,"ECCENTRICITY":0.0001324,"INCLINATION":53.1593,"RA_OF_ASC_NODE":5.9006,"ARG_OF_PERICENTER":87.2471,"MEAN_ANOMALY":272.8682,"EPHEMERIS_TYPE":0,"CLASSIFICATION_TYPE":"U","NORAD_CAT_ID":64673,"ELEMENT_SET_NO":999,"REV_AT_EPOCH":2054,"BSTAR":0.0015075,"MEAN_MOTION_DOT":0.0004453,"MEAN_MOTION_DDOT":0},{"OBJECT_NAME":"STARLINK-34539","OBJECT_ID":"2025-139L","EPOCH":"2025-10-31T14:38:13.758144","MEAN_MOTION":15.30166263,"ECCENTRICITY":9.87e-5,"INCLINATION":53.1577,"RA_OF_ASC_NODE":6.4485,"ARG_OF_PERICENTER":99.1017,"MEAN_ANOMALY":261.0096,"EPHEMERIS_TYPE":0,"CLASSIFICATION_TYPE":"U","NORAD_CAT_ID":64674,"ELEMENT_SET_NO":999,"REV_AT_EPOCH":2042,"BSTAR":0.0016495,"MEAN_MOTION_DOT":0.00048764,"MEAN_MOTION_DDOT":0},{"OBJECT_NAME":"STARLINK-34590","OBJECT_ID":"2025-139M","EPOCH":"2025-10-31T14:15:34.369056","MEAN_MOTION":15.30245792,"ECCENTRICITY":0.0001575,"INCLINATION":53.1589,"RA_OF_ASC_NODE":7.0579,"ARG_OF_PERICENTER":109.8426,"MEAN_ANOMALY":250.2745,"EPHEMERIS_TYPE":0,"CLASSIFICATION_TYPE":"U","NORAD_CAT_ID":64675,"ELEMENT_SET_NO":999,"REV_AT_EPOCH":2051,"BSTAR":0.0010711,"MEAN_MOTION_DOT":0.00031544,"MEAN_MOTION_DDOT":0},{"OBJECT_NAME":"STARLINK-34573","OBJECT_ID":"2025-139N","EPOCH":"2025-10-31T14:24:33.291648","MEAN_MOTION":15.3016292,"ECCENTRICITY":0.0001153,"INCLINATION":53.1569,"RA_OF_ASC_NODE":6.3875,"ARG_OF_PERICENTER":82.0759,"MEAN_ANOMALY":278.0373,"EPHEMERIS_TYPE":0,"CLASSIFICATION_TYPE":"U","NORAD_CAT_ID":64676,"ELEMENT_SET_NO":999,"REV_AT_EPOCH":2052,"BSTAR":0.00090748,"MEAN_MOTION_DOT":0.00026583,"MEAN_MOTION_DDOT":0},{"OBJECT_NAME":"STARLINK-34605","OBJECT_ID":"2025-139P","EPOCH":"2025-10-31T13:08:04.584192","MEAN_MOTION":15.39565665,"ECCENTRICITY":9.35e-5,"INCLINATION":53.1592,"RA_OF_ASC_NODE":2.5153,"ARG_OF_PERICENTER":91.1321,"MEAN_ANOMALY":268.9791,"EPHEMERIS_TYPE":0,"CLASSIFICATION_TYPE":"U","NORAD_CAT_ID":64677,"ELEMENT_SET_NO":999,"REV_AT_EPOCH":2057,"BSTAR":0.00070682,"MEAN_MOTION_DOT":0.00027926,"MEAN_MOTION_DDOT":0},{"OBJECT_NAME":"STARLINK-34525","OBJECT_ID":"2025-139Q","EPOCH":"2025-10-31T14:08:00.074400","MEAN_MOTION":15.30166583,"ECCENTRICITY":0.000107,"INCLINATION":53.1592,"RA_OF_ASC_NODE":7.0238,"ARG_OF_PERICENTER":71.4931,"MEAN_ANOMALY":288.6186,"EPHEMERIS_TYPE":0,"CLASSIFICATION_TYPE":"U","NORAD_CAT_ID":64678,"ELEMENT_SET_NO":999,"REV_AT_EPOCH":2051,"BSTAR":0.0015749,"MEAN_MOTION_DOT":0.00046528,"MEAN_MOTION_DDOT":0},{"OBJECT_NAME":"STARLINK-34489","OBJECT_ID":"2025-139R","EPOCH":"2025-10-31T17:06:59.489856","MEAN_MOTION":15.3018494,"ECCENTRICITY":0.000129,"INCLINATION":53.1602,"RA_OF_ASC_NODE":6.3766,"ARG_OF_PERICENTER":94.6162,"MEAN_ANOMALY":265.4986,"EPHEMERIS_TYPE":0,"CLASSIFICATION_TYPE":"U","NORAD_CAT_ID":64679,"ELEMENT_SET_NO":999,"REV_AT_EPOCH":2053,"BSTAR":0.0014961,"MEAN_MOTION_DOT":0.00044195,"MEAN_MOTION_DDOT":0},{"OBJECT_NAME":"STARLINK-34502","OBJECT_ID":"2025-139S","EPOCH":"2025-10-31T14:32:07.384128","MEAN_MOTION":15.30284535,"ECCENTRICITY":0.0001569,"INCLINATION":53.1578,"RA_OF_ASC_NODE":6.4188,"ARG_OF_PERICENTER":78.1375,"MEAN_ANOMALY":281.9802,"EPHEMERIS_TYPE":0,"CLASSIFICATION_TYPE":"U","NORAD_CAT_ID":64680,"ELEMENT_SET_NO":999,"REV_AT_EPOCH":2052,"BSTAR":0.0016603,"MEAN_MOTION_DOT":0.00049269,"MEAN_MOTION_DDOT":0},{"OBJECT_NAME":"STARLINK-34553","OBJECT_ID":"2025-139T","EPOCH":"2025-10-31T11:14:55.235040","MEAN_MOTION":15.30166371,"ECCENTRICITY":0.0001138,"INCLINATION":53.1576,"RA_OF_ASC_NODE":6.9851,"ARG_OF_PERICENTER":86.9487,"MEAN_ANOMALY":273.1644,"EPHEMERIS_TYPE":0,"CLASSIFICATION_TYPE":"U","NORAD_CAT_ID":64681,"ELEMENT_SET_NO":999,"REV_AT_EPOCH":2050,"BSTAR":0.00087773,"MEAN_MOTION_DOT":0.00025699,"MEAN_MOTION_DDOT":0}]
